NORAD_CAT_ID,OBJECT_NAME,OBJECT_TYPE,EPOCH,MEAN_MOTION,ECCENTRICITY,INCLINATION,RA_OF_ASC_NODE,ARG_OF_PERICENTER,MEAN_ANOMALY,BSTAR,MEAN_MOTION_DOT,MEAN_MOTION_DDOT,TLE_LINE0,TLE_LINE1,TLE_LINE2,SEMIMAJOR_AXIS,PERIOD,APOGEE,PERIGEE,DECAYED
55760.0,STARLINK-5532,PAYLOAD,2023-03-20 22:00:01,15.71096241,0.0003532,69.9916,106.9642,269.2426,223.4909,-0.0073034,-0.0083589,0.0,0 STARLINK-5532,1 55760U 23028V   23079.91668981 -.00835890  00000-0 -73034-2 0  9991,2 55760  69.9916 106.9642 0003532 269.2426 223.4909 15.71096241  1306,6733.9,91.656,358.143,353.386,0.0
55760.0,STARLINK-5532,PAYLOAD,2023-03-21 10:00:00,15.69977596,0.0003505,69.9931,105.5569,275.6554,163.3104,-0.00079428,-0.00094862,0.0,0 STARLINK-5532,1 55760U 23028V   23080.41667824 -.00094862  00000-0 -79428-3 0  9993,2 55760  69.9931 105.5569 0003505 275.6554 163.3104 15.69977596  3432,6737.098,91.721,361.324,356.602,0.0
55760.0,STARLINK-5532,PAYLOAD,2023-03-21 14:00:01,15.69915855,0.000352,69.9931,105.0875,276.2778,24.4487,5.2956e-05,6.157e-05,0.0,0 STARLINK-5532,1 55760U 23028V   23080.58335648  .00006157  00000-0  52956-4 0  9993,2 55760  69.9931 105.0875 0003520 276.2778  24.4487 15.69915855  1304,6737.275,91.725,361.511,356.768,0.0
55760.0,STARLINK-5532,PAYLOAD,2023-03-21 22:00:00,15.69877407,0.000346,69.9954,104.15,268.8442,115.1597,0.00082272,0.00099704,0.0,0 STARLINK-5532,1 55760U 23028V   23080.91667824  .00099704  00000-0  82272-3 0  9997,2 55760  69.9954 104.1500 0003460 268.8442 115.1597 15.69877407  1302,6737.385,91.727,361.581,356.919,0.0
55760.0,STARLINK-5532,PAYLOAD,2023-03-22 08:00:01,15.69884901,0.000329,69.9963,102.9782,275.9293,302.2485,0.0004568,0.00054984,0.0,0 STARLINK-5532,1 55760U 23028V   23081.33334491  .00054984  00000-0  45680-3 0  9998,2 55760  69.9963 102.9782 0003290 275.9293 302.2485 15.69884901  3588,6737.363,91.726,361.445,357.012,0.0
55760.0,STARLINK-5532,PAYLOAD,2023-03-22 22:00:00,15.69859375,0.0003327,69.9982,101.3376,267.783,6.2352,0.0010513,0.00127796,0.0,0 STARLINK-5532,1 55760U 23028V   23081.91667824  .00127796  00000-0  10513-2 0  9999,2 55760  69.9982 101.3376 0003327 267.7830   6.2352 15.69859375  3679,6737.436,91.728,361.543,357.06,0.0
55760.0,STARLINK-5532,PAYLOAD,2023-03-23 06:00:00,15.69951006,0.0003411,69.9993,100.4003,270.5972,86.7364,-0.00054259,-0.00065025,0.0,0 STARLINK-5532,1 55760U 23028V   23082.25001157 -.00065025  00000-0 -54259-3 0  9992,2 55760  69.9993 100.4003 0003411 270.5972  86.7364 15.69951006  3727,6737.174,91.723,361.337,356.741,0.0
55760.0,STARLINK-5532,PAYLOAD,2023-03-23 14:00:01,15.69931504,0.0003431,69.9997,99.4628,270.4093,170.3268,-0.00016039,-0.0001946,0.0,0 STARLINK-5532,1 55760U 23028V   23082.58335648 -.00019460  00000-0 -16039-3 0  9999,2 55760  69.9997  99.4628 0003431 270.4093 170.3268 15.69931504  1302,6737.23,91.724,361.407,356.783,0.0
55760.0,STARLINK-5532,PAYLOAD,2023-03-24 18:00:00,15.70063433,0.000343,70.0007,96.1836,266.5179,285.8419,-0.005077,-0.00574066,0.0,0 STARLINK-5532,1 55760U 23028V   23083.75001157 -.00574066  00000-0 -50770-2 0  9991,2 55760  70.0007  96.1836 0003430 266.5179 285.8419 15.70063433  3954,6736.853,91.716,361.028,356.407,0.0
55760.0,STARLINK-5532,PAYLOAD,2023-03-24 22:00:01,15.70016964,0.0003332,70.0007,95.7152,268.4179,145.6379,-0.0080872,-0.00879795,0.0,0 STARLINK-5532,1 55760U 23028V   23083.91668981 -.00879795  00000-0 -80872-2 0  9996,2 55760  70.0007  95.7152 0003332 268.4179 145.6379 15.70016964  1304,6736.985,91.719,361.095,356.606,0.0
55760.0,STARLINK-5532,PAYLOAD,2023-03-25 02:21:33,15.69836513,0.0003326,69.9985,95.2045,257.6704,102.4119,-0.00033138,-0.00039727,0.0,0 STARLINK-5532,1 55760U 23028V   23084.09830207 -.00039727  00000-0 -33138-3 0  9995,2 55760  69.9985  95.2045 0003326 257.6704 102.4119 15.69836513  4011,6737.502,91.729,361.608,357.126,0.0
55760.0,STARLINK-5532,PAYLOAD,2023-03-25 10:00:31,15.69379829,0.0003473,69.9986,94.3094,310.4171,49.6721,-0.0020701,-0.00236859,0.0,0 STARLINK-5532,1 55760U 23028V   23084.41702855 -.00236859  00000-0 -20701-2 0  9994,2 55760  69.9986  94.3094 0003473 310.4171  49.6721 15.69379829  4063,6738.809,91.756,363.014,358.333,0.0
55760.0,STARLINK-5532,PAYLOAD,2023-03-25 17:39:24,15.69498534,0.0003694,69.9992,93.4134,300.6254,59.4577,-0.00035975,-0.00042503,0.0,0 STARLINK-5532,1 55760U 23028V   23084.73569960 -.00042503  00000-0 -35975-3 0  9998,2 55760  69.9992  93.4134 0003694 300.6254  59.4577 15.69498534  4112,6738.469,91.749,362.823,357.845,0.0
55760.0,STARLINK-5532,PAYLOAD,2023-03-27 06:00:00,15.65434695,0.0003595,70.0014,89.1778,268.9699,349.9301,-0.0099367,-0.00908116,0.0,0 STARLINK-5532,1 55760U 23028V   23086.25001157 -.00908116  00000-0 -99367-2 0  9991,2 55760  70.0014  89.1778 0003595 268.9699 349.9301 15.65434695  4346,6750.126,91.987,374.418,369.564,0.0
55760.0,STARLINK-5532,PAYLOAD,2023-03-27 14:00:01,15.64822616,0.0003661,70.0012,88.2472,270.4361,66.0144,-0.010862,-0.00963145,0.0,0 STARLINK-5532,1 55760U 23028V   23086.58334491 -.00963145  00000-0 -10862-1 0  9992,2 55760  70.0012  88.2472 0003661 270.4361  66.0144 15.64822616  1301,6751.886,92.023,376.223,371.279,0.0
55760.0,STARLINK-5532,PAYLOAD,2023-03-27 22:00:00,15.64134888,0.0003594,70.0012,87.318,267.5983,145.6452,-0.01025,-0.00891003,0.0,0 STARLINK-5532,1 55760U 23028V   23086.91667824 -.00891003  00000-0 -10250-1 0  9992,2 55760  70.0012  87.3180 0003594 267.5983 145.6452 15.64134888  1302,6753.865,92.064,378.157,373.303,0.0
55760.0,STARLINK-5532,PAYLOAD,2023-03-28 08:00:01,15.63292839,0.0003444,70.0012,86.1574,272.6722,325.4653,-0.010189,-0.00859472,0.0,0 STARLINK-5532,1 55760U 23028V   23087.33334491 -.00859472  00000-0 -10189-1 0  9995,2 55760  70.0012  86.1574 0003444 272.6722 325.4653 15.63292839  4515,6756.29,92.113,380.482,375.828,0.0
55760.0,STARLINK-5532,PAYLOAD,2023-03-28 14:00:01,15.62871812,0.0003398,70.0009,85.4617,271.3317,293.1277,-0.011889,-0.00974544,0.0,0 STARLINK-5532,1 55760U 23028V   23087.58334491 -.00974544  00000-0 -11889-1 0  9998,2 55760  70.0009  85.4617 0003398 271.3317 293.1277 15.62871812  1305,6757.503,92.138,381.665,377.072,0.0
55760.0,STARLINK-5532,PAYLOAD,2023-03-28 22:00:00,15.62185468,0.0003454,70.0012,84.5348,263.0987,15.8069,-0.011231,-0.00903,0.0,0 STARLINK-5532,1 55760U 23028V   23087.91667824 -.00903000  00000-0 -11231-1 0  9994,2 55760  70.0012  84.5348 0003454 263.0987  15.8069 15.62185468  1307,6759.482,92.179,383.682,379.013,0.0
55760.0,STARLINK-5532,PAYLOAD,2023-03-29 02:00:01,15.61884853,0.0003377,70.0016,84.0715,268.1611,227.6689,-0.012119,-0.0095749,0.0,0 STARLINK-5532,1 55760U 23028V   23088.08334491 -.00957490  00000-0 -12119-1 0  9992,2 55760  70.0016  84.0715 0003377 268.1611 227.6689 15.61884853  4631,6760.35,92.196,384.498,379.932,0.0
55760.0,STARLINK-5532,PAYLOAD,2023-03-29 14:00:01,15.60907783,0.0003395,70.0009,82.6838,273.084,152.3504,-0.012688,-0.00964443,0.0,0 STARLINK-5532,1 55760U 23028V   23088.58334491 -.00964443  00000-0 -12688-1 0  9994,2 55760  70.0009  82.6838 0003395 273.0840 152.3504 15.60907783  4718,6763.171,92.254,387.332,382.74,0.0
55760.0,STARLINK-5532,PAYLOAD,2023-03-29 22:00:00,15.60238286,0.000328,70.0011,81.7598,265.839,231.6875,-0.012325,-0.00917504,0.0,0 STARLINK-5532,1 55760U 23028V   23088.91667824 -.00917504  00000-0 -12325-1 0  9994,2 55760  70.0011  81.7598 0003280 265.8390 231.6875 15.60238286  1305,6765.105,92.294,389.189,384.751,0.0
55760.0,STARLINK-5532,PAYLOAD,2023-03-30 00:00:00,15.60100378,0.0003317,70.0012,81.5288,263.7808,341.6404,-0.013046,-0.00961547,0.0,0 STARLINK-5532,1 55760U 23028V   23089.00001157 -.00961547  00000-0 -13046-1 0  9993,2 55760  70.0012  81.5288 0003317 263.7808 341.6404 15.60100378  4776,6765.504,92.302,389.613,385.125,0.0
55760.0,STARLINK-5532,PAYLOAD,2023-03-30 16:00:00,15.58742899,0.0003014,70.0009,79.6836,267.5054,119.3828,-0.012697,-0.00894786,0.0,0 STARLINK-5532,1 55760U 23028V   23089.66667824 -.00894786  00000-0 -12697-1 0  9995,2 55760  70.0009  79.6836 0003014 267.5054 119.3828 15.58742899  4887,6769.431,92.382,393.337,389.256,0.0
55760.0,STARLINK-5532,PAYLOAD,2023-03-30 22:00:00,15.58283478,0.0003296,70.0011,78.9926,263.0299,86.0781,-0.013291,-0.0091828,0.0,0 STARLINK-5532,1 55760U 23028V   23089.91667824 -.00918280  00000-0 -13291-1 0  9990,2 55760  70.0011  78.9926 0003296 263.0299  86.0781 15.58283478  1301,6770.762,92.409,394.858,390.395,0.0
55760.0,STARLINK-5532,PAYLOAD,2023-03-31 18:00:00,15.56604712,0.0003409,70.0006,76.6928,263.8384,76.2314,-0.013033,-0.00851483,0.0,0 STARLINK-5532,1 55760U 23028V   23090.75001157 -.00851483  00000-0 -13033-1 0  9990,2 55760  70.0006  76.6928 0003409 263.8384  76.2314 15.56604712  5056,6775.629,92.509,399.804,395.184,0.0
55760.0,STARLINK-5532,PAYLOAD,2023-04-01 08:00:01,15.55480467,0.0003475,70.0008,75.0861,273.5393,93.2746,-0.014048,-0.00877796,0.0,0 STARLINK-5532,1 55760U 23028V   23091.33334491 -.00877796  00000-0 -14048-1 0  9997,2 55760  70.0008  75.0861 0003475 273.5393  93.2746 15.55480467  5144,6778.893,92.576,403.114,398.403,0.0
55760.0,STARLINK-5532,PAYLOAD,2023-04-01 14:00:01,15.55024222,0.0003353,70.0004,74.3985,270.8185,55.2917,-0.015518,-0.00946381,0.0,0 STARLINK-5532,1 55760U 23028V   23091.58334491 -.00946381  00000-0 -15518-1 0  9994,2 55760  70.0004  74.3985 0003353 270.8185  55.2917 15.55024222  1308,6780.219,92.603,404.358,399.811,0.0
55760.0,STARLINK-5532,PAYLOAD,2023-04-01 22:00:00,15.54373319,0.0003443,70.0007,73.4827,267.5931,123.5605,-0.015482,-0.00924094,0.0,0 STARLINK-5532,1 55760U 23028V   23091.91667824 -.00924094  00000-0 -15482-1 0  9997,2 55760  70.0007  73.4827 0003443 267.5931 123.5605 15.54373319  5230,6782.112,92.642,406.312,401.642,0.0
55760.0,STARLINK-5532,PAYLOAD,2023-04-02 14:00:01,15.53067482,0.0003334,70.0002,71.6529,271.761,247.1576,-0.016636,-0.00957965,0.0,0 STARLINK-5532,1 55760U 23028V   23092.58334491 -.00957965  00000-0 -16636-1 0  9997,2 55760  70.0002  71.6529 0003334 271.7610 247.1576 15.53067482  1308,6785.913,92.72,410.04,405.516,0.0
